*******************************************************************************
Ephemeris / WWW_USER Tue Mar 27 22:12:09 2018 Pasadena, USA      / Horizons    
*******************************************************************************
Target body name: Mercury (199)                   {source: DE431mx}
Center body name: Solar System Barycenter (0)     {source: DE431mx}
Center-site name: BODY CENTER
*******************************************************************************
Start time      : A.D. 2018-Feb-08 00:00:00.0000 TDB
Stop  time      : A.D. 2028-Feb-08 00:00:00.0000 TDB
Step-size       : 7200 minutes
*******************************************************************************
Center geodetic : 0.00000000,0.00000000,0.0000000 {E-lon(deg),Lat(deg),Alt(km)}
Center cylindric: 0.00000000,0.00000000,0.0000000 {E-lon(deg),Dxy(km),Dz(km)}
Center radii    : (undefined)                                                  
Output units    : AU-D                                                         
Output type     : GEOMETRIC cartesian states
Output format   : 2 (position and velocity)
Reference frame : ICRF/J2000.0                                                 
Coordinate systm: Ecliptic and Mean Equinox of Reference Epoch                 
*******************************************************************************
JDTDB
   X     Y     Z
   VX    VY    VZ
*******************************************************************************
$$SOE
2460257.500000000 = A.D. 2023-Nov-09 00:00:00.0000 TDB 
  -6.059344451580055E-02 -4.643770272762639E-01 -3.272662893644528E-02
   2.231608305581460E-02 -1.744731090800366E-03 -2.188520841625630E-03
2460262.500000000 = A.D. 2023-Nov-14 00:00:00.0000 TDB 
   5.153273535222002E-02 -4.560355931975649E-01 -4.232471663022184E-02
   2.225511338978617E-02  5.109465717996816E-03 -1.622796574320891E-03
2460267.500000000 = A.D. 2023-Nov-19 00:00:00.0000 TDB 
   1.590183115670208E-01 -4.131849514922107E-01 -4.867702154551844E-02
   2.042669497049827E-02  1.201879893007427E-02 -8.904487367017428E-04
2460272.500000000 = A.D. 2023-Nov-24 00:00:00.0000 TDB 
   2.524346836329106E-01 -3.362646085902252E-01 -5.095463016246163E-02
   1.657597166574483E-02  1.867014760702336E-02  6.310530665968422E-06
2460277.500000000 = A.D. 2023-Nov-29 00:00:00.0000 TDB 
   3.208351801841026E-01 -2.278156497681508E-01 -4.836112860527397E-02
   1.035996466120978E-02  2.450729013861063E-02  1.053485614194804E-03
2460282.500000000 = A.D. 2023-Dec-04 00:00:00.0000 TDB 
   3.515741600329507E-01 -9.419260871466179E-02 -4.025590567835782E-02
   1.481452142372946E-03  2.852036783850220E-02  2.195812164522713E-03
2460287.500000000 = A.D. 2023-Dec-09 00:00:00.0000 TDB 
   3.314371290478880E-01  5.158489516685904E-02 -2.649085077296146E-02
  -9.878579441778444E-03  2.903090841543558E-02  3.279522754410243E-03
2460292.500000000 = A.D. 2023-Dec-14 00:00:00.0000 TDB 
   2.511753607401819E-01  1.866974436272261E-01 -8.082460283638069E-03
  -2.212106276520571E-02  2.392341919034643E-02  3.985063896848123E-03
2460297.500000000 = A.D. 2023-Dec-19 00:00:00.0000 TDB 
   1.150881429424509E-01  2.797531473897277E-01  1.200953738495812E-02
  -3.141464540322318E-02  1.232020477461243E-02  3.889281756293783E-03
2460302.500000000 = A.D. 2023-Dec-24 00:00:00.0000 TDB 
  -5.071405653897613E-02  3.037434273858384E-01  2.918301047330806E-02
  -3.350452008404552E-02 -2.865759312275310E-03  2.839959266202260E-03
2460307.500000000 = A.D. 2023-Dec-29 00:00:00.0000 TDB 
  -2.069456209328611E-01  2.544958813071547E-01  3.949354552075820E-02
  -2.793872433449046E-02 -1.610883817152167E-02  1.247201630969544E-03
2460312.500000000 = A.D. 2024-Jan-03 00:00:00.0000 TDB 
  -3.231192196879721E-01  1.516593292873462E-01  4.175044151644725E-02
  -1.817056545163623E-02 -2.407802255848246E-02 -3.000256530263285E-04
2460317.500000000 = A.D. 2024-Jan-08 00:00:00.0000 TDB 
  -3.876231590662040E-01  2.240837538667140E-02  3.710936457418432E-02
  -7.719952140018216E-03 -2.687068329018170E-02 -1.486819231893905E-03
2460322.500000000 = A.D. 2024-Jan-13 00:00:00.0000 TDB 
  -4.022895824360076E-01 -1.108450426394120E-01  2.756989520179011E-02
   1.589107880094409E-03 -2.593353116629916E-02 -2.264100188562652E-03
2460327.500000000 = A.D. 2024-Jan-18 00:00:00.0000 TDB 
  -3.746397870765604E-01 -2.329696347143044E-01  1.505846583305245E-02
   9.169729150603795E-03 -2.260621081951026E-02 -2.687513689252267E-03
2460332.500000000 = A.D. 2024-Jan-23 00:00:00.0000 TDB 
  -3.135708778204803E-01 -3.344503901265768E-01  1.168737825995424E-03
   1.496728525824835E-02 -1.779305992238394E-02 -2.825952189658621E-03
2460337.500000000 = A.D. 2024-Jan-28 00:00:00.0000 TDB 
  -2.277811008703519E-01 -4.093565667542652E-01 -1.281677741151000E-02
   1.907567825656987E-02 -1.204661536878527E-02 -2.733183008443252E-03
2460342.500000000 = A.D. 2024-Feb-02 00:00:00.0000 TDB 
  -1.254846834888257E-01 -4.539256570665221E-01 -2.583715866295273E-02
   2.157929658168448E-02 -5.701990980925344E-03 -2.444333431757033E-03
2460347.500000000 = A.D. 2024-Feb-07 00:00:00.0000 TDB 
  -1.463221785613284E-02 -4.657522753031247E-01 -3.696657674229906E-02
   2.249327849644070E-02  1.018209450646641E-03 -1.978984310954245E-03
2460352.500000000 = A.D. 2024-Feb-12 00:00:00.0000 TDB 
   9.667227085672139E-02 -4.434329665478716E-01 -4.534701138813103E-02
   2.173809568532236E-02  7.923297857497277E-03 -1.345424759486399E-03
2460357.500000000 = A.D. 2024-Feb-17 00:00:00.0000 TDB 
   1.996591727167535E-01 -3.865994916522397E-01 -5.014399322999842E-02
   1.912538232569060E-02  1.477539740783108E-02 -5.458169730427056E-04
2460362.500000000 = A.D. 2024-Feb-22 00:00:00.0000 TDB 
   2.843392179785555E-01 -2.964023341082322E-01 -5.053529378756442E-02
   1.435812914993905E-02  2.118317785524519E-02  4.151017661559355E-04
2460367.500000000 = A.D. 2024-Feb-27 00:00:00.0000 TDB 
   3.390565310218918E-01 -1.766624346703937E-01 -4.576405051625596E-02
   7.084610934427351E-03  2.643561519237041E-02  1.511487272424892E-03
2460372.500000000 = A.D. 2024-Mar-03 00:00:00.0000 TDB 
   3.506658734473496E-01 -3.603543281189466E-02 -3.533188789577311E-02
  -2.876558269022924E-03  2.926918644821941E-02  2.656720538632654E-03
2460377.500000000 = A.D. 2024-Mar-08 00:00:00.0000 TDB 
   3.067320895138386E-01  1.087765187387850E-01 -1.946313042187792E-02
  -1.490879472725114E-02  2.774319578252726E-02  3.635650915825336E-03
2460382.500000000 = A.D. 2024-Mar-13 00:00:00.0000 TDB 
   2.021290984038338E-01  2.307962977530365E-01  1.078044325399592E-04
  -2.652699883880665E-02  1.993436498850030E-02  4.063164708033614E-03
2460387.500000000 = A.D. 2024-Mar-18 00:00:00.0000 TDB 
   4.963832425316343E-02  2.981069931813575E-01  1.960027953804704E-02
  -3.327806304989217E-02  6.280736866372528E-03  3.566605537061561E-03
2460392.500000000 = A.D. 2024-Mar-23 00:00:00.0000 TDB 
  -1.169876058406341E-01  2.912537743490914E-01  3.432852363309502E-02
  -3.201951538570328E-02 -8.756215418745664E-03  2.222331557919782E-03
2460397.500000000 = A.D. 2024-Mar-28 00:00:00.0000 TDB 
  -2.595593243584755E-01  2.170445378585612E-01  4.134602925061028E-02
  -2.424524876132089E-02 -2.003322370359468E-02  5.876805464938493E-04
2460402.500000000 = A.D. 2024-Apr-02 00:00:00.0000 TDB 
  -3.551857509347865E-01  1.003237309890203E-01  4.058346308590695E-02
  -1.386727928641346E-02 -2.576189623957336E-02 -8.323753434810947E-04
2460407.500000000 = A.D. 2024-Apr-07 00:00:00.0000 TDB 
  -3.987625101814672E-01 -3.282600209101187E-02  3.370413369840222E-02
  -3.748875171806268E-03 -2.685431621779710E-02 -1.849744046989271E-03
2460412.500000000 = A.D. 2024-Apr-12 00:00:00.0000 TDB 
  -3.951949240851714E-01 -1.630136947313895E-01  2.274262183932470E-02
   4.886574139977100E-03 -2.480912919537563E-02 -2.474682937900236E-03
2460417.500000000 = A.D. 2024-Apr-17 00:00:00.0000 TDB 
  -3.528904960544914E-01 -2.776554128459183E-01  9.498463329621017E-03
   1.173577901950974E-02 -2.079221002283247E-02 -2.774649510122506E-03
2460422.500000000 = A.D. 2024-Apr-22 00:00:00.0000 TDB 
  -2.807574181960817E-01 -3.689070973007020E-01 -4.570227334967816E-03
   1.683439546207728E-02 -1.554832144874890E-02 -2.813776806872886E-03
2460427.500000000 = A.D. 2024-Apr-27 00:00:00.0000 TDB 
  -1.872924382023178E-01 -4.318518730843643E-01 -1.828228652612350E-02
   2.028388839187044E-02 -9.526831344616671E-03 -2.638094289302556E-03
2460432.500000000 = A.D. 2024-May-02 00:00:00.0000 TDB 
  -8.056129603030256E-02 -4.633478996510708E-01 -3.064114188885127E-02
   2.214493166567981E-02 -3.006301171479017E-03 -2.275931589655490E-03
2460437.500000000 = A.D. 2024-May-07 00:00:00.0000 TDB 
   3.147999439126180E-02 -4.614175526170973E-01 -4.075542707404811E-02
   2.239644104897546E-02  3.812698858301585E-03 -1.741745739678570E-03
2460442.500000000 = A.D. 2024-May-12 00:00:00.0000 TDB 
   1.405227492918884E-01 -4.250514435362310E-01 -4.778055366021366E-02
   2.091593982547281E-02  1.073069502345466E-02 -1.040604115698524E-03
2460447.500000000 = A.D. 2024-May-17 00:00:00.0000 TDB 
   2.373684488719707E-01 -3.544088561277600E-01 -5.088582036424776E-02
   1.746933397983526E-02  1.746297177767692E-02 -1.743022422638643E-04
2460452.500000000 = A.D. 2024-May-22 00:00:00.0000 TDB 
   3.113879018576279E-01 -2.515369106975444E-01 -4.926357676265820E-02
   1.172507978889214E-02  2.351279521516206E-02  8.469763794585205E-04
2460457.500000000 = A.D. 2024-May-27 00:00:00.0000 TDB 
   3.502295382645320E-01 -1.218909759670345E-01 -4.222671676125490E-02
   3.356937780380357E-03  2.797448204431316E-02  1.979141907267474E-03
2460462.500000000 = A.D. 2024-Jun-01 00:00:00.0000 TDB 
   3.405795370420515E-01  2.302400679819363E-02 -2.949425203826828E-02
  -7.599602775478933E-03  2.930229803566228E-02  3.092619862633262E-03
